CCSDS_OMM_VERS = 2.0
CREATION_DATE  = 
ORIGINATOR     = 

OBJECT_NAME    = SL-16 R/B
OBJECT_ID      = 1998-043G
CENTER_NAME    = EARTH
REF_FRAME      = TEME
TIME_SYSTEM    = UTC
MEAN_ELEMENT_THEORY = SGP/SGP4

EPOCH          = 2026-02-22T03:43:39.171072
MEAN_MOTION    = 14.26045755
ECCENTRICITY   = .001085
INCLINATION    = 98.8228
RA_OF_ASC_NODE = 6.4112
ARG_OF_PERICENTER = 62.1067
MEAN_ANOMALY   = 298.1210

EPHEMERIS_TYPE = 0
CLASSIFICATION_TYPE = U
NORAD_CAT_ID   = 25400
ELEMENT_SET_NO = 999
REV_AT_EPOCH   = 43677
BSTAR          = .45474E-4
MEAN_MOTION_DOT = .63E-6
MEAN_MOTION_DDOT = 0

CCSDS_OMM_VERS = 2.0
CREATION_DATE  = 
ORIGINATOR     = 

OBJECT_NAME    = SL-16 R/B
OBJECT_ID      = 1998-045B
CENTER_NAME    = EARTH
REF_FRAME      = TEME
TIME_SYSTEM    = UTC
MEAN_ELEMENT_THEORY = SGP/SGP4

EPOCH          = 2026-02-21T21:25:23.702880
MEAN_MOTION    = 14.16191178
ECCENTRICITY   = .0005907
INCLINATION    = 71.0099
RA_OF_ASC_NODE = 214.7927
ARG_OF_PERICENTER = 34.7936
MEAN_ANOMALY   = 325.3572

EPHEMERIS_TYPE = 0
CLASSIFICATION_TYPE = U
NORAD_CAT_ID   = 25407
ELEMENT_SET_NO = 999
REV_AT_EPOCH   = 42486
BSTAR          = .38738E-4
MEAN_MOTION_DOT = .29E-6
MEAN_MOTION_DDOT = 0

CCSDS_OMM_VERS = 2.0
CREATION_DATE  = 
ORIGINATOR     = 

OBJECT_NAME    = ISS (ZARYA)
OBJECT_ID      = 1998-067A
CENTER_NAME    = EARTH
REF_FRAME      = TEME
TIME_SYSTEM    = UTC
MEAN_ELEMENT_THEORY = SGP/SGP4

EPOCH          = 2026-02-21T18:22:01.805952
MEAN_MOTION    = 15.48189327
ECCENTRICITY   = .0008512
INCLINATION    = 51.6320
RA_OF_ASC_NODE = 151.0701
ARG_OF_PERICENTER = 119.8639
MEAN_ANOMALY   = 240.3195

EPHEMERIS_TYPE = 0
CLASSIFICATION_TYPE = U
NORAD_CAT_ID   = 25544
ELEMENT_SET_NO = 999
REV_AT_EPOCH   = 55386
BSTAR          = .20704E-3
MEAN_MOTION_DOT = .10666E-3
MEAN_MOTION_DDOT = 0

CCSDS_OMM_VERS = 2.0
CREATION_DATE  = 
ORIGINATOR     = 

OBJECT_NAME    = CZ-4B R/B
OBJECT_ID      = 1999-025C
CENTER_NAME    = EARTH
REF_FRAME      = TEME
TIME_SYSTEM    = UTC
MEAN_ELEMENT_THEORY = SGP/SGP4

EPOCH          = 2026-02-22T01:38:06.170208
MEAN_MOTION    = 14.18261916
ECCENTRICITY   = .003758
INCLINATION    = 98.6661
RA_OF_ASC_NODE = 97.7173
ARG_OF_PERICENTER = 31.3870
MEAN_ANOMALY   = 358.6141

EPHEMERIS_TYPE = 0
CLASSIFICATION_TYPE = U
NORAD_CAT_ID   = 25732
ELEMENT_SET_NO = 999
REV_AT_EPOCH   = 38595
BSTAR          = .30204E-4
MEAN_MOTION_DOT = .2E-6
MEAN_MOTION_DDOT = 0

CCSDS_OMM_VERS = 2.0
CREATION_DATE  = 
ORIGINATOR     = 

OBJECT_NAME    = OKEAN-O
OBJECT_ID      = 1999-039A
CENTER_NAME    = EARTH
REF_FRAME      = TEME
TIME_SYSTEM    = UTC
MEAN_ELEMENT_THEORY = SGP/SGP4

EPOCH          = 2026-02-22T04:09:02.261376
MEAN_MOTION    = 14.80307569
ECCENTRICITY   = .0001652
INCLINATION    = 97.9478
RA_OF_ASC_NODE = 113.2195
ARG_OF_PERICENTER = 77.8465
MEAN_ANOMALY   = 282.2932

EPHEMERIS_TYPE = 0
CLASSIFICATION_TYPE = U
NORAD_CAT_ID   = 25860
ELEMENT_SET_NO = 999
REV_AT_EPOCH   = 43209
BSTAR          = .78003E-4
MEAN_MOTION_DOT = .542E-5
MEAN_MOTION_DDOT = 0

CCSDS_OMM_VERS = 2.0
CREATION_DATE  = 
ORIGINATOR     = 

OBJECT_NAME    = SL-16 R/B
OBJECT_ID      = 1999-039B
CENTER_NAME    = EARTH
REF_FRAME      = TEME
TIME_SYSTEM    = UTC
MEAN_ELEMENT_THEORY = SGP/SGP4

EPOCH          = 2026-02-22T04:01:07.785408
MEAN_MOTION    = 14.81707293
ECCENTRICITY   = .0013689
INCLINATION    = 98.0002
RA_OF_ASC_NODE = 112.2845
ARG_OF_PERICENTER = 311.1547
MEAN_ANOMALY   = 48.8484

EPHEMERIS_TYPE = 0
CLASSIFICATION_TYPE = U
NORAD_CAT_ID   = 25861
ELEMENT_SET_NO = 999
REV_AT_EPOCH   = 43456
BSTAR          = .63344E-4
MEAN_MOTION_DOT = .445E-5
MEAN_MOTION_DDOT = 0

CCSDS_OMM_VERS = 2.0
CREATION_DATE  = 
ORIGINATOR     = 

OBJECT_NAME    = DELTA 2 R/B
OBJECT_ID      = 1999-041E
CENTER_NAME    = EARTH
REF_FRAME      = TEME
TIME_SYSTEM    = UTC
MEAN_ELEMENT_THEORY = SGP/SGP4

EPOCH          = 2026-02-22T00:12:41.721408
MEAN_MOTION    = 14.11776786
ECCENTRICITY   = .0502221
INCLINATION    = 51.7661
RA_OF_ASC_NODE = 3.9036
ARG_OF_PERICENTER = 302.1292
MEAN_ANOMALY   = 53.1836

EPHEMERIS_TYPE = 0
CLASSIFICATION_TYPE = U
NORAD_CAT_ID   = 25876
ELEMENT_SET_NO = 999
REV_AT_EPOCH   = 36081
BSTAR          = .26856E-3
MEAN_MOTION_DOT = .1435E-4
MEAN_MOTION_DDOT = 0

CCSDS_OMM_VERS = 2.0
CREATION_DATE  = 
ORIGINATOR     = 

OBJECT_NAME    = HELIOS 1B
OBJECT_ID      = 1999-064A
CENTER_NAME    = EARTH
REF_FRAME      = TEME
TIME_SYSTEM    = UTC
MEAN_ELEMENT_THEORY = SGP/SGP4

EPOCH          = 2026-02-22T02:37:32.801952
MEAN_MOTION    = 14.87626954
ECCENTRICITY   = .00024
INCLINATION    = 98.1712
RA_OF_ASC_NODE = 314.8939
ARG_OF_PERICENTER = 96.2295
MEAN_ANOMALY   = 263.9194

EPHEMERIS_TYPE = 0
CLASSIFICATION_TYPE = U
NORAD_CAT_ID   = 25977
ELEMENT_SET_NO = 999
REV_AT_EPOCH   = 68294
BSTAR          = .1746E-3
MEAN_MOTION_DOT = .1529E-4
MEAN_MOTION_DDOT = 0

CCSDS_OMM_VERS = 2.0
CREATION_DATE  = 
ORIGINATOR     = 

OBJECT_NAME    = TERRA
OBJECT_ID      = 1999-068A
CENTER_NAME    = EARTH
REF_FRAME      = TEME
TIME_SYSTEM    = UTC
MEAN_ELEMENT_THEORY = SGP/SGP4

EPOCH          = 2026-02-22T02:15:49.719744
MEAN_MOTION    = 14.60996014
ECCENTRICITY   = .0001594
INCLINATION    = 97.9628
RA_OF_ASC_NODE = 107.1222
ARG_OF_PERICENTER = 194.7341
MEAN_ANOMALY   = 195.4309

EPHEMERIS_TYPE = 0
CLASSIFICATION_TYPE = U
NORAD_CAT_ID   = 25994
ELEMENT_SET_NO = 999
REV_AT_EPOCH   = 39280
BSTAR          = .81174E-4
MEAN_MOTION_DOT = .354E-5
MEAN_MOTION_DDOT = 0

CCSDS_OMM_VERS = 2.0
CREATION_DATE  = 
ORIGINATOR     = 

OBJECT_NAME    = SL-16 R/B
OBJECT_ID      = 2000-006B
CENTER_NAME    = EARTH
REF_FRAME      = TEME
TIME_SYSTEM    = UTC
MEAN_ELEMENT_THEORY = SGP/SGP4

EPOCH          = 2026-02-22T04:28:37.639200
MEAN_MOTION    = 14.15818868
ECCENTRICITY   = .0017764
INCLINATION    = 71.0021
RA_OF_ASC_NODE = 130.4365
ARG_OF_PERICENTER = 211.5710
MEAN_ANOMALY   = 148.4349

EPHEMERIS_TYPE = 0
CLASSIFICATION_TYPE = U
NORAD_CAT_ID   = 26070
ELEMENT_SET_NO = 999
REV_AT_EPOCH   = 34636
BSTAR          = .87861E-4
MEAN_MOTION_DOT = .125E-5
MEAN_MOTION_DDOT = 0

CCSDS_OMM_VERS = 2.0
CREATION_DATE  = 
ORIGINATOR     = 

OBJECT_NAME    = TITAN 4B R/B
OBJECT_ID      = 2000-047B
CENTER_NAME    = EARTH
REF_FRAME      = TEME
TIME_SYSTEM    = UTC
MEAN_ELEMENT_THEORY = SGP/SGP4

EPOCH          = 2026-02-22T03:00:04.887648
MEAN_MOTION    = 15.09407334
ECCENTRICITY   = .0037649
INCLINATION    = 67.9878
RA_OF_ASC_NODE = 84.2738
ARG_OF_PERICENTER = 54.1704
MEAN_ANOMALY   = 306.2933

EPHEMERIS_TYPE = 0
CLASSIFICATION_TYPE = U
NORAD_CAT_ID   = 26474
ELEMENT_SET_NO = 999
REV_AT_EPOCH   = 39056
BSTAR          = .18099E-3
MEAN_MOTION_DOT = .2811E-4
MEAN_MOTION_DDOT = 0

CCSDS_OMM_VERS = 2.0
CREATION_DATE  = 
ORIGINATOR     = 

OBJECT_NAME    = ENVISAT
OBJECT_ID      = 2002-009A
CENTER_NAME    = EARTH
REF_FRAME      = TEME
TIME_SYSTEM    = UTC
MEAN_ELEMENT_THEORY = SGP/SGP4

EPOCH          = 2026-02-21T19:40:20.897184
MEAN_MOTION    = 14.39030351
ECCENTRICITY   = .00013493
INCLINATION    = 98.3701
RA_OF_ASC_NODE = 6.7976
ARG_OF_PERICENTER = 86.5831
MEAN_ANOMALY   = 289.4333

EPHEMERIS_TYPE = 0
CLASSIFICATION_TYPE = U
NORAD_CAT_ID   = 27386
ELEMENT_SET_NO = 999
REV_AT_EPOCH   = 25689
BSTAR          = .48888172E-4
MEAN_MOTION_DOT = .108E-5
MEAN_MOTION_DDOT = 0

